STARLINK-2256_new
1 18598C 21041AX  21326.18091348 -.00019272  00000-0 -12910-2 0  3262
2 18598  53.0536 342.9346 0001381  70.6913  45.7546 15.06423399    12
STARLINK-2256_old
1 28598C 21041AX  21325.15121891 -.00002248  00000-0 -15060-3 0  3259
2 28598  53.0540 347.5572 0001328  70.6315 218.6415 15.06404131    15
